STARLINK-38067          
1 69747U 26150J   26199.52169095  .00212574  00000+0  13863-2 0  9994
2 69747  97.2837  38.0285 0001372 114.2311 245.9098 15.75265955  3845
STARLINK-37988          
1 69748U 26150K   26199.51992671  .00129628  00000+0  85656-3 0  9995
2 69748  97.2841  38.0306 0001252  92.2959 267.8449 15.75197343  3843
STARLINK-37987          
1 69749U 26150L   26199.51569175  .00175498  00000+0  11505-2 0  9992
2 69749  97.2846  38.0370 0001104 110.4056 249.7328 15.75249507  3842
STARLINK-38037          
1 69750U 26150M   26199.49069629  .00240405  00000+0  12163-2 0  9992
2 69750  97.2854  38.0728 0001092  85.8663 274.2730 15.80910604  3844
STARLINK-38049          
1 69751U 26150N   26199.48965577  .00139848  00000+0  71538-3 0  9999
2 69751  97.2857  38.0737 0000948  93.2446 266.8931 15.80932844  3849
STARLINK-38029          
1 69752U 26150P   26199.49910473  .00151500  00000+0  99608-3 0  9993
2 69752  97.2851  38.0612 0001585 111.7934 248.3500 15.75249895  3840
STARLINK-37965          
1 69753U 26150Q   26199.82345074  .00175003  00000+0  11490-2 0  9996
2 69753  97.2841  38.3841 0001715  95.7571 264.3890 15.75214724  3898
STARLINK-38048          
1 69754U 26150R   26199.48355474  .00172387  00000+0  88021-3 0  9991
2 69754  97.2842  38.0819 0001411  93.6026 266.5404 15.80886628  3841
STARLINK-38006          
1 69755U 26150S   26199.81427330  .00123051  00000+0  81316-3 0  9994
2 69755  97.2848  38.3977 0001279  99.3155 260.8255 15.75214657  3891
STARLINK-38036          
1 69756U 26150T   26199.83335647 -.00177871  00000+0 -12134-2 0  9998
2 69756  97.2855  38.4356 0001113  88.2900  57.9795 15.75252366  3886
STARLINK-38058          
1 69757U 26150U   26199.83335647 -.00622206  00000+0 -44120-2 0  9996
2 69757  97.2851  38.4591 0001456 100.0093 104.0877 15.75551747  3880
STARLINK-38066          
1 69758U 26150V   26199.83335647 -.01913002  00000+0 -11471-1 0  9997
2 69758  97.2847  38.4637 0001792 101.8147 113.2435 15.80748363  3889
STARLINK-38035          
1 69759U 26150W   26197.51659780  .00328828  00000+0  16439-2 0  9991
2 69759  97.2826  36.0135 0001208 127.8766 232.2612 15.80943955  3536
STARLINK-38056          
1 69760U 26150X   26199.53877854  .00303051  00000+0  15196-2 0  9991
2 69760  97.2841  38.1609 0001357 127.6986 232.4406 15.80944146  3852
STARLINK-38069          
1 69761U 26150Y   26199.83335647 -.00058727  00000+0 -39550-3 0  9994
2 69761  97.2856  38.4748 0000842  80.5901 159.6785 15.75194960  3886
STARLINK-38019          
1 69762U 26150Z   26199.81356979  .00108882  00000+0  72131-3 0  9992
2 69762  97.2841  38.3987 0000829  75.6411 284.4946 15.75199274  3891
KUIPER-00258            
1 69763U 26151A   26199.39200835  .00003104  00000+0  10180-3 0  9993
2 69763  51.8670 165.1525 0011375 179.1617 180.9389 15.34753877  2509
KUIPER-00526            
1 69764U 26151B   26199.89238751  .00015242  00000+0  41909-3 0  9996
2 69764  51.8764 162.5164 0006341 150.6832 209.4512 15.37377542  2581
KUIPER-00558            
1 69765U 26151C   26199.83335647 -.00991246  00000+0 -32253-1 0  9992
2 69765  51.8783 162.9132 0006992 167.5006 169.3699 15.33842795  3184
KUIPER-00569            
1 69766U 26151D   26199.83335647  .00048975  00000+0  13124-2 0  9990
2 69766  51.8798 162.7805 0005146 149.7461 253.6972 15.37501060  1677
KUIPER-00589            
1 69767U 26151E   26199.89150628  .00013280  00000+0  36637-3 0  9997
2 69767  51.8760 162.5118 0005347 151.9506 208.1769 15.37402076  2587
KUIPER-00598            
1 69768U 26151F   26199.83335647  .00039370  00000+0  11698-2 0  9995
2 69768  51.8643 163.0253 0008703 175.1587 102.8317 15.34350414  3114
KUIPER-00604            
1 69769U 26151G   26199.62259645  .00011626  00000+0  31309-3 0  9992
2 69769  51.8808 163.7088 0002680 116.3646 243.7617 15.38292222  2542
KUIPER-00609            
1 69770U 26151H   26199.87800456  .00012528  00000+0  33224-3 0  9993
2 69770  51.8806 162.4218 0001332  60.2927 299.8193 15.38692460  2588
KUIPER-00611            
1 69771U 26151J   26199.62033833  .00008141  00000+0  22095-3 0  9994
2 69771  51.8813 163.6900 0001637 109.7569 250.3595 15.38499762  2541
KUIPER-00612            
1 69772U 26151K   26199.43081545  .00011113  00000+0  30267-3 0  9990
2 69772  51.8802 164.6733 0003733 127.3519 232.7808 15.37989792  2519
KUIPER-00614            
1 69773U 26151L   26199.88339524  .00011011  00000+0  29792-3 0  9991
2 69773  51.8811 162.4560 0002610 130.2273 229.8943 15.38205735  2580
KUIPER-00615            
1 69774U 26151M   26199.63332961  .00012030  00000+0  33422-3 0  9990
2 69774  51.8783 163.7806 0005889 159.4148 200.7077 15.37279796  2540
KUIPER-00616            
1 69775U 26151N   26199.29683612  .00022283  00000+0  58720-3 0  9994
2 69775  51.8793 165.2779 0002959 134.0384 226.0848 15.38429645  2496
KUIPER-00617            
1 69776U 26151P   26199.62718802  .00008548  00000+0  23646-3 0  9999
2 69776  51.8805 163.7393 0003924 145.0912 215.0333 15.37833061  2541
